{"type": "FeatureCollection", "features": [ {"type": "Feature", "properties": {"norad_id": 34833, "name": "IRIDIUM 33 DEB", "group": "iridium-33-debris", "lat": 35.53246411654776, "lon": -133.61850342323766, "alt_km": 707.8913003020243, "timestamp": "2025-12-17T10:52:54.737461+00:00", "meta": {"OBJECT_NAME": "IRIDIUM 33 DEB", "OBJECT_ID": "1997-051MH", "EPOCH": "2025-12-15T10:20:22.808256", "MEAN_MOTION": 14.52396502, "ECCENTRICITY": 0.00217393, "INCLINATION": 86.3936, "RA_OF_ASC_NODE": 49.8343, "ARG_OF_PERICENTER": 90.4638, "MEAN_ANOMALY": 284.9984, "EPHEMERIS_TYPE": 0, "CLASSIFICATION_TYPE": "U", "NORAD_CAT_ID": 34833, "ELEMENT_SET_NO": 999, "REV_AT_EPOCH": 87754, "BSTAR": 0.00054738094, "MEAN_MOTION_DOT": 2.256e-05, "MEAN_MOTION_DDOT": 0}, "tle": {"line1": "1 34833U 97051MH  25349.43081954  .00002256  00000+0  54738-3 0  9994", "line2": "2 34833  86.3936  49.8343 0021739  90.4638 284.9984 14.52396502877543"}}, "geometry": {"type": "Point", "coordinates": [-133.61850342323766, 35.53246411654776]}}, {"type": "Feature", "properties": {"norad_id": 34870, "name": "IRIDIUM 33 DEB", "group": "iridium-33-debris", "lat": 15.566902298711227, "lon": 130.89473152871474, "alt_km": 629.520672175141, "timestamp": "2025-12-17T10:52:54.737475+00:00", "meta": {"OBJECT_NAME": "IRIDIUM 33 DEB", "OBJECT_ID": "1997-051MQ", "EPOCH": "2025-12-15T20:52:07.322880", "MEAN_MOTION": 14.7649675, "ECCENTRICITY": 0.00166647, "INCLINATION": 86.3098, "RA_OF_ASC_NODE": 312.6504, "ARG_OF_PERICENTER": 171.0618, "MEAN_ANOMALY": 219.7465, "EPHEMERIS_TYPE": 0, "CLASSIFICATION_TYPE": "U", "NORAD_CAT_ID": 34870, "ELEMENT_SET_NO": 999, "REV_AT_EPOCH": 88957, "BSTAR": 0.0009319058, "MEAN_MOTION_DOT": 6.529e-05, "MEAN_MOTION_DDOT": 0}, "tle": {"line1": "1 34870U 97051MQ  25349.86952920  .00006529  00000+0  93191-3 0  9995", "line2": "2 34870  86.3098 312.6504 0016664 171.0618 219.7465 14.76496750889576"}}, "geometry": {"type": "Point", "coordinates": [130.89473152871474, 15.566902298711227]}}, {"type": "Feature", "properties": {"norad_id": 34896, "name": "IRIDIUM 33 DEB", "group": "iridium-33-debris", "lat": -13.024822270311322, "lon": 145.42203104069313, "alt_km": 660.0934884045819, "timestamp": "2025-12-17T10:52:54.737486+00:00", "meta": {"OBJECT_NAME": "IRIDIUM 33 DEB", "OBJECT_ID": "1997-051MY", "EPOCH": "2025-12-16T04:34:33.251232", "MEAN_MOTION": 14.66314014, "ECCENTRICITY": 0.00246953, "INCLINATION": 86.3284, "RA_OF_ASC_NODE": 325.1372, "ARG_OF_PERICENTER": 201.8046, "MEAN_ANOMALY": 169.754, "EPHEMERIS_TYPE": 0, "CLASSIFICATION_TYPE": "U", "NORAD_CAT_ID": 34896, "ELEMENT_SET_NO": 999, "REV_AT_EPOCH": 87670, "BSTAR": 0.00064317524, "MEAN_MOTION_DOT": 3.586e-05, "MEAN_MOTION_DDOT": 0}, "tle": {"line1": "1 34896U 97051MY  25350.19066263  .00003586  00000+0  64318-3 0  9996", "line2": "2 34896  86.3284 325.1372 0024695 201.8046 169.7540 14.66314014876703"}}, "geometry": {"type": "Point", "coordinates": [145.42203104069313, -13.024822270311322]}}, {"type": "Feature", "properties": {"norad_id": 34926, "name": "IRIDIUM 33 DEB", "group": "iridium-33-debris", "lat": 79.63255227305544, "lon": 27.789658292724024, "alt_km": 754.1752427857127, "timestamp": "2025-12-17T10:52:54.737496+00:00", "meta": {"OBJECT_NAME": "IRIDIUM 33 DEB", "OBJECT_ID": "1997-051NF", "EPOCH": "2025-12-16T12:07:53.948928", "MEAN_MOTION": 14.54592592, "ECCENTRICITY": 0.00747935, "INCLINATION": 86.1325, "RA_OF_ASC_NODE": 6.5279, "ARG_OF_PERICENTER": 279.7661, "MEAN_ANOMALY": 239.6719, "EPHEMERIS_TYPE": 0, "CLASSIFICATION_TYPE": "U", "NORAD_CAT_ID": 34926, "ELEMENT_SET_NO": 999, "REV_AT_EPOCH": 86511, "BSTAR": 0.0039679953, "MEAN_MOTION_DOT": 0.00017628, "MEAN_MOTION_DDOT": 0}, "tle": {"line1": "1 34926U 97051NF  25350.50548552  .00017628  00000+0  39680-2 0  9996", "line2": "2 34926  86.1325   6.5279 0074793 279.7661 239.6719 14.54592592865112"}}, "geometry": {"type": "Point", "coordinates": [27.789658292724024, 79.63255227305544]}}, {"type": "Feature", "properties": {"norad_id": 34985, "name": "IRIDIUM 33 DEB", "group": "iridium-33-debris", "lat": -6.9249522416415825, "lon": 54.427292347958534, "alt_km": 768.6284670859577, "timestamp": "2025-12-17T10:52:54.737507+00:00", "meta": {"OBJECT_NAME": "IRIDIUM 33 DEB", "OBJECT_ID": "1997-051NR", "EPOCH": "2025-12-15T23:04:55.240608", "MEAN_MOTION": 14.42024534, "ECCENTRICITY": 0.00210591, "INCLINATION": 86.3698, "RA_OF_ASC_NODE": 55.5052, "ARG_OF_PERICENTER": 208.7794, "MEAN_ANOMALY": 325.5524, "EPHEMERIS_TYPE": 0, "CLASSIFICATION_TYPE": "U", "NORAD_CAT_ID": 34985, "ELEMENT_SET_NO": 999, "REV_AT_EPOCH": 87221, "BSTAR": 0.00049841253, "MEAN_MOTION_DOT": 1.659e-05, "MEAN_MOTION_DDOT": 0}, "tle": {"line1": "1 34985U 97051NR  25349.96175047  .00001659  00000+0  49841-3 0  9992", "line2": "2 34985  86.3698  55.5052 0021059 208.7794 325.5524 14.42024534872212"}}, "geometry": {"type": "Point", "coordinates": [54.427292347958534, -6.9249522416415825]}}, {"type": "Feature", "properties": {"norad_id": 35051, "name": "IRIDIUM 33 DEB", "group": "iridium-33-debris", "lat": 20.2393359733214, "lon": 8.16600710948353, "alt_km": 729.4573608080173, "timestamp": "2025-12-17T10:52:54.737517+00:00", "meta": {"OBJECT_NAME": "IRIDIUM 33 DEB", "OBJECT_ID": "1997-051NX", "EPOCH": "2025-12-16T11:33:47.254752", "MEAN_MOTION": 14.4761513, "ECCENTRICITY": 0.00105455, "INCLINATION": 86.3243, "RA_OF_ASC_NODE": 7.2312, "ARG_OF_PERICENTER": 80.6225, "MEAN_ANOMALY": 279.617, "EPHEMERIS_TYPE": 0, "CLASSIFICATION_TYPE": "U", "NORAD_CAT_ID": 35051, "ELEMENT_SET_NO": 999, "REV_AT_EPOCH": 87050, "BSTAR": 0.0004582656, "MEAN_MOTION_DOT": 1.708e-05, "MEAN_MOTION_DDOT": 0}, "tle": {"line1": "1 35051U 97051NX  25350.48179693  .00001708  00000+0  45827-3 0  9992", "line2": "2 35051  86.3243   7.2312 0010545  80.6225 279.6170 14.47615130870509"}}, "geometry": {"type": "Point", "coordinates": [8.16600710948353, 20.2393359733214]}}, {"type": "Feature", "properties": {"norad_id": 35052, "name": "IRIDIUM 33 DEB", "group": "iridium-33-debris", "lat": 14.945251013630756, "lon": 19.43701667600875, "alt_km": 759.0017684037275, "timestamp": "2025-12-17T10:52:54.737527+00:00", "meta": {"OBJECT_NAME": "IRIDIUM 33 DEB", "OBJECT_ID": "1997-051NY", "EPOCH": "2025-12-16T08:06:03.894048", "MEAN_MOTION": 14.38496373, "ECCENTRICITY": 0.00135749, "INCLINATION": 86.3307, "RA_OF_ASC_NODE": 18.9338, "ARG_OF_PERICENTER": 75.0638, "MEAN_ANOMALY": 285.2062, "EPHEMERIS_TYPE": 0, "CLASSIFICATION_TYPE": "U", "NORAD_CAT_ID": 35052, "ELEMENT_SET_NO": 999, "REV_AT_EPOCH": 87327, "BSTAR": 0.00017087331, "MEAN_MOTION_DOT": 5.42e-06, "MEAN_MOTION_DDOT": 0}, "tle": {"line1": "1 35052U 97051NY  25350.33754507  .00000542  00000+0  17087-3 0  9992", "line2": "2 35052  86.3307  18.9338 0013574  75.0638 285.2062 14.38496373873275"}}, "geometry": {"type": "Point", "coordinates": [19.43701667600875, 14.945251013630756]}}, {"type": "Feature", "properties": {"norad_id": 35080, "name": "IRIDIUM 33 DEB", "group": "iridium-33-debris", "lat": -77.39435483977957, "lon": 32.87042006501714, "alt_km": 635.7796657479175, "timestamp": "2025-12-17T10:52:54.737537+00:00", "meta": {"OBJECT_NAME": "IRIDIUM 33 DEB", "OBJECT_ID": "1997-051PF", "EPOCH": "2025-12-16T11:00:08.968896", "MEAN_MOTION": 14.86515028, "ECCENTRICITY": 0.00596582, "INCLINATION": 86.2079, "RA_OF_ASC_NODE": 50.5991, "ARG_OF_PERICENTER": 166.9442, "MEAN_ANOMALY": 193.3344, "EPHEMERIS_TYPE": 0, "CLASSIFICATION_TYPE": "U", "NORAD_CAT_ID": 35080, "ELEMENT_SET_NO": 999, "REV_AT_EPOCH": 69743, "BSTAR": 0.0043661809, "MEAN_MOTION_DOT": 0.00040099, "MEAN_MOTION_DDOT": 0}, "tle": {"line1": "1 35080U 97051PF  25350.45843714  .00040099  00000+0  43662-2 0  9993", "line2": "2 35080  86.2079  50.5991 0059658 166.9442 193.3344 14.86515028697430"}}, "geometry": {"type": "Point", "coordinates": [32.87042006501714, -77.39435483977957]}}, {"type": "Feature", "properties": {"norad_id": 35297, "name": "IRIDIUM 33 DEB", "group": "iridium-33-debris", "lat": 34.863401807349774, "lon": 63.27135198735522, "alt_km": 739.4977717189031, "timestamp": "2025-12-17T10:52:54.737547+00:00", "meta": {"OBJECT_NAME": "IRIDIUM 33 DEB", "OBJECT_ID": "1997-051PM", "EPOCH": "2025-12-16T11:27:21.167712", "MEAN_MOTION": 14.45174956, "ECCENTRICITY": 0.00178431, "INCLINATION": 86.3863, "RA_OF_ASC_NODE": 61.1645, "ARG_OF_PERICENTER": 129.6186, "MEAN_ANOMALY": 230.6595, "EPHEMERIS_TYPE": 0, "CLASSIFICATION_TYPE": "U", "NORAD_CAT_ID": 35297, "ELEMENT_SET_NO": 999, "REV_AT_EPOCH": 70480, "BSTAR": 0.00045011402, "MEAN_MOTION_DOT": 1.598e-05, "MEAN_MOTION_DDOT": 0}, "tle": {"line1": "1 35297U 97051PM  25350.47732833  .00001598  00000+0  45011-3 0  9996", "line2": "2 35297  86.3863  61.1645 0017843 129.6186 230.6595 14.45174956704806"}}, "geometry": {"type": "Point", "coordinates": [63.27135198735522, 34.863401807349774]}}, {"type": "Feature", "properties": {"norad_id": 35299, "name": "IRIDIUM 33 DEB", "group": "iridium-33-debris", "lat": -75.01582667630448, "lon": -134.83110684102726, "alt_km": 804.1222027113499, "timestamp": "2025-12-17T10:52:54.737557+00:00", "meta": {"OBJECT_NAME": "IRIDIUM 33 DEB", "OBJECT_ID": "1997-051PP", "EPOCH": "2025-12-16T10:40:21.082080", "MEAN_MOTION": 14.40880098, "ECCENTRICITY": 0.00589087, "INCLINATION": 86.2888, "RA_OF_ASC_NODE": 31.5738, "ARG_OF_PERICENTER": 90.5856, "MEAN_ANOMALY": 335.617, "EPHEMERIS_TYPE": 0, "CLASSIFICATION_TYPE": "U", "NORAD_CAT_ID": 35299, "ELEMENT_SET_NO": 999, "REV_AT_EPOCH": 86384, "BSTAR": 0.00056943755, "MEAN_MOTION_DOT": 1.883e-05, "MEAN_MOTION_DDOT": 0}, "tle": {"line1": "1 35299U 97051PP  25350.44468845  .00001883  00000+0  56944-3 0  9998", "line2": "2 35299  86.2888  31.5738 0058908  90.5856 335.6170 14.40880098863846"}}, "geometry": {"type": "Point", "coordinates": [-134.83110684102726, -75.01582667630448]}}]}